{"type": "FeatureCollection", "features": [ {"type": "Feature", "properties": {"norad_id": 40701, "name": "GAOFEN-8", "group": "resource", "lat": 32.98598911651914, "lon": -1.5711431301616237, "alt_km": 441.0513408590987, "timestamp": "2025-12-20T20:38:44.101326+00:00", "meta": {"OBJECT_NAME": "GAOFEN-8", "OBJECT_ID": "2015-030A", "EPOCH": "2025-12-20T13:46:08.283936", "MEAN_MOTION": 15.38803356, "ECCENTRICITY": 0.00119647, "INCLINATION": 97.69, "RA_OF_ASC_NODE": 173.0969, "ARG_OF_PERICENTER": 111.9566, "MEAN_ANOMALY": 248.2951, "EPHEMERIS_TYPE": 0, "CLASSIFICATION_TYPE": "U", "NORAD_CAT_ID": 40701, "ELEMENT_SET_NO": 999, "REV_AT_EPOCH": 58391, "BSTAR": 0.00050208209, "MEAN_MOTION_DOT": 0.00019247, "MEAN_MOTION_DDOT": 0}, "tle": {"line1": "1 40701U 15030A   25354.57370699  .00019247  00000+0  50208-3 0  9996", "line2": "2 40701  97.6900 173.0969 0011964 111.9566 248.2951 15.38803356583919"}}, "geometry": {"type": "Point", "coordinates": [-1.5711431301616237, 32.98598911651914]}}, {"type": "Feature", "properties": {"norad_id": 40718, "name": "CARBONITE 1 (CBNT-1)", "group": "resource", "lat": -64.61258805518423, "lon": -20.883014212147426, "alt_km": 627.9275311678839, "timestamp": "2025-12-20T20:38:44.101341+00:00", "meta": {"OBJECT_NAME": "CARBONITE 1 (CBNT-1)", "OBJECT_ID": "2015-032D", "EPOCH": "2025-12-20T14:40:59.886336", "MEAN_MOTION": 14.82780033, "ECCENTRICITY": 0.00150085, "INCLINATION": 97.6395, "RA_OF_ASC_NODE": 175.3087, "ARG_OF_PERICENTER": 155.6409, "MEAN_ANOMALY": 204.5518, "EPHEMERIS_TYPE": 0, "CLASSIFICATION_TYPE": "U", "NORAD_CAT_ID": 40718, "ELEMENT_SET_NO": 999, "REV_AT_EPOCH": 56287, "BSTAR": 0.00027929892, "MEAN_MOTION_DOT": 2.212e-05, "MEAN_MOTION_DDOT": 0}, "tle": {"line1": "1 40718U 15032D   25354.61180424  .00002212  00000+0  27930-3 0  9996", "line2": "2 40718  97.6395 175.3087 0015008 155.6409 204.5518 14.82780033562875"}}, "geometry": {"type": "Point", "coordinates": [-20.883014212147426, -64.61258805518423]}}, {"type": "Feature", "properties": {"norad_id": 40878, "name": "YAOGAN-27", "group": "resource", "lat": 60.09308264638361, "lon": -177.83496198578993, "alt_km": 1198.7677411170598, "timestamp": "2025-12-20T20:38:44.101352+00:00", "meta": {"OBJECT_NAME": "YAOGAN-27", "OBJECT_ID": "2015-040A", "EPOCH": "2025-12-20T14:34:21.497664", "MEAN_MOTION": 13.16059572, "ECCENTRICITY": 0.00075837, "INCLINATION": 100.1006, "RA_OF_ASC_NODE": 343.8713, "ARG_OF_PERICENTER": 267.3129, "MEAN_ANOMALY": 92.7116, "EPHEMERIS_TYPE": 0, "CLASSIFICATION_TYPE": "U", "NORAD_CAT_ID": 40878, "ELEMENT_SET_NO": 999, "REV_AT_EPOCH": 49417, "BSTAR": -0.001146553, "MEAN_MOTION_DOT": -4.78e-06, "MEAN_MOTION_DDOT": 0}, "tle": {"line1": "1 40878U 15040A   25354.60719326 -.00000478  00000+0 -11466-2 0  9990", "line2": "2 40878 100.1006 343.8713 0007583 267.3129  92.7116 13.16059572494179"}}, "geometry": {"type": "Point", "coordinates": [-177.83496198578993, 60.09308264638361]}}, {"type": "Feature", "properties": {"norad_id": 40894, "name": "GAOFEN-9 01", "group": "resource", "lat": 22.872378312346964, "lon": -143.28353250390632, "alt_km": 637.8567029527512, "timestamp": "2025-12-20T20:38:44.101374+00:00", "meta": {"OBJECT_NAME": "GAOFEN-9 01", "OBJECT_ID": "2015-047A", "EPOCH": "2025-12-20T15:04:53.988096", "MEAN_MOTION": 14.82439831, "ECCENTRICITY": 0.00277531, "INCLINATION": 97.6532, "RA_OF_ASC_NODE": 33.2429, "ARG_OF_PERICENTER": 8.9382, "MEAN_ANOMALY": 351.2321, "EPHEMERIS_TYPE": 0, "CLASSIFICATION_TYPE": "U", "NORAD_CAT_ID": 40894, "ELEMENT_SET_NO": 999, "REV_AT_EPOCH": 55373, "BSTAR": 0.0001015485, "MEAN_MOTION_DOT": 7.68e-06, "MEAN_MOTION_DDOT": 0}, "tle": {"line1": "1 40894U 15047A   25354.62840264  .00000768  00000+0  10155-3 0  9998", "line2": "2 40894  97.6532  33.2429 0027753   8.9382 351.2321 14.82439831553739"}}, "geometry": {"type": "Point", "coordinates": [-143.28353250390632, 22.872378312346964]}}, {"type": "Feature", "properties": {"norad_id": 41026, "name": "YAOGAN-28", "group": "resource", "lat": 81.95232447183129, "lon": 17.151886064046312, "alt_km": 476.30608601809945, "timestamp": "2025-12-20T20:38:44.101386+00:00", "meta": {"OBJECT_NAME": "YAOGAN-28", "OBJECT_ID": "2015-064A", "EPOCH": "2025-12-20T15:30:42.804864", "MEAN_MOTION": 15.24471155, "ECCENTRICITY": 0.00126239, "INCLINATION": 97.2811, "RA_OF_ASC_NODE": 132.2161, "ARG_OF_PERICENTER": 100.8666, "MEAN_ANOMALY": 259.3993, "EPHEMERIS_TYPE": 0, "CLASSIFICATION_TYPE": "U", "NORAD_CAT_ID": 41026, "ELEMENT_SET_NO": 999, "REV_AT_EPOCH": 56345, "BSTAR": 0.00021466712, "MEAN_MOTION_DOT": 5.214e-05, "MEAN_MOTION_DDOT": 0}, "tle": {"line1": "1 41026U 15064A   25354.64632876  .00005214  00000+0  21467-3 0  9994", "line2": "2 41026  97.2811 132.2161 0012623 100.8666 259.3993 15.24471155563458"}}, "geometry": {"type": "Point", "coordinates": [17.151886064046312, 81.95232447183129]}}, {"type": "Feature", "properties": {"norad_id": 41038, "name": "YAOGAN-29", "group": "resource", "lat": 57.04712676190847, "lon": 5.4944871088488885, "alt_km": 614.8683700378251, "timestamp": "2025-12-20T20:38:44.101397+00:00", "meta": {"OBJECT_NAME": "YAOGAN-29", "OBJECT_ID": "2015-069A", "EPOCH": "2025-12-20T13:54:26.887104", "MEAN_MOTION": 14.82893165, "ECCENTRICITY": 4.778e-05, "INCLINATION": 98.021, "RA_OF_ASC_NODE": 17.7767, "ARG_OF_PERICENTER": 172.0653, "MEAN_ANOMALY": 188.0567, "EPHEMERIS_TYPE": 0, "CLASSIFICATION_TYPE": "U", "NORAD_CAT_ID": 41038, "ELEMENT_SET_NO": 999, "REV_AT_EPOCH": 54415, "BSTAR": 0.0001182449, "MEAN_MOTION_DOT": 9.04e-06, "MEAN_MOTION_DDOT": 0}, "tle": {"line1": "1 41038U 15069A   25354.57947786  .00000904  00000+0  11824-3 0  9990", "line2": "2 41038  98.0210  17.7767 0000477 172.0653 188.0567 14.82893165544156"}}, "geometry": {"type": "Point", "coordinates": [5.4944871088488885, 57.04712676190847]}}, {"type": "Feature", "properties": {"norad_id": 41167, "name": "KENT RIDGE 1", "group": "resource", "lat": 10.531538088563082, "lon": -73.17235364558009, "alt_km": 498.55945437450555, "timestamp": "2025-12-20T20:38:44.101407+00:00", "meta": {"OBJECT_NAME": "KENT RIDGE 1", "OBJECT_ID": "2015-077B", "EPOCH": "2025-12-20T15:20:09.071232", "MEAN_MOTION": 15.21692405, "ECCENTRICITY": 0.00085261, "INCLINATION": 14.9782, "RA_OF_ASC_NODE": 152.5234, "ARG_OF_PERICENTER": 242.4554, "MEAN_ANOMALY": 117.4901, "EPHEMERIS_TYPE": 0, "CLASSIFICATION_TYPE": "U", "NORAD_CAT_ID": 41167, "ELEMENT_SET_NO": 999, "REV_AT_EPOCH": 55384, "BSTAR": 0.00011665416, "MEAN_MOTION_DOT": 3.472e-05, "MEAN_MOTION_DDOT": 0}, "tle": {"line1": "1 41167U 15077B   25354.63899388  .00003472  00000+0  11665-3 0  9999", "line2": "2 41167  14.9782 152.5234 0008526 242.4554 117.4901 15.21692405553844"}}, "geometry": {"type": "Point", "coordinates": [-73.17235364558009, 10.531538088563082]}}, {"type": "Feature", "properties": {"norad_id": 41194, "name": "GAOFEN-4", "group": "resource", "lat": 0.18356249006787734, "lon": 145.06452026510888, "alt_km": 35775.16795151661, "timestamp": "2025-12-20T20:38:44.101420+00:00", "meta": {"OBJECT_NAME": "GAOFEN-4", "OBJECT_ID": "2015-083A", "EPOCH": "2025-12-19T15:27:26.627616", "MEAN_MOTION": 1.00273138, "ECCENTRICITY": 0.0002945, "INCLINATION": 0.1878, "RA_OF_ASC_NODE": 81.7841, "ARG_OF_PERICENTER": 93.4275, "MEAN_ANOMALY": 250.8523, "EPHEMERIS_TYPE": 0, "CLASSIFICATION_TYPE": "U", "NORAD_CAT_ID": 41194, "ELEMENT_SET_NO": 999, "REV_AT_EPOCH": 3672, "BSTAR": 0, "MEAN_MOTION_DOT": -3.11e-06, "MEAN_MOTION_DDOT": 0}, "tle": {"line1": "1 41194U 15083A   25353.64405819 -.00000311  00000+0  00000+0 0  9995", "line2": "2 41194   0.1878  81.7841 0002945  93.4275 250.8523  1.00273138 36722"}}, "geometry": {"type": "Point", "coordinates": [145.06452026510888, 0.18356249006787734]}}, {"type": "Feature", "properties": {"norad_id": 41240, "name": "JASON-3", "group": "resource", "lat": 27.21814280437376, "lon": -52.46842046572453, "alt_km": 1311.7338400117205, "timestamp": "2025-12-20T20:38:44.101432+00:00", "meta": {"OBJECT_NAME": "JASON-3", "OBJECT_ID": "2016-002A", "EPOCH": "2025-12-20T14:16:37.233696", "MEAN_MOTION": 12.87626861, "ECCENTRICITY": 0.00072244, "INCLINATION": 66.0399, "RA_OF_ASC_NODE": 141.3095, "ARG_OF_PERICENTER": 271.2614, "MEAN_ANOMALY": 88.7577, "EPHEMERIS_TYPE": 0, "CLASSIFICATION_TYPE": "U", "NORAD_CAT_ID": 41240, "ELEMENT_SET_NO": 999, "REV_AT_EPOCH": 46425, "BSTAR": -4.7364892e-05, "MEAN_MOTION_DOT": -7.4e-07, "MEAN_MOTION_DDOT": 0}, "tle": {"line1": "1 41240U 16002A   25354.59487539 -.00000074  00000+0 -47365-4 0  9990", "line2": "2 41240  66.0399 141.3095 0007224 271.2614  88.7577 12.87626861464257"}}, "geometry": {"type": "Point", "coordinates": [-52.46842046572453, 27.21814280437376]}}, {"type": "Feature", "properties": {"norad_id": 41335, "name": "SENTINEL-3A", "group": "resource", "lat": -78.0914825942058, "lon": 105.82803075476755, "alt_km": 810.6370773147264, "timestamp": "2025-12-20T20:38:44.101442+00:00", "meta": {"OBJECT_NAME": "SENTINEL-3A", "OBJECT_ID": "2016-011A", "EPOCH": "2025-12-20T14:17:45.266784", "MEAN_MOTION": 14.26733474, "ECCENTRICITY": 9.069e-05, "INCLINATION": 98.6304, "RA_OF_ASC_NODE": 59.4985, "ARG_OF_PERICENTER": 94.3128, "MEAN_ANOMALY": 265.8156, "EPHEMERIS_TYPE": 0, "CLASSIFICATION_TYPE": "U", "NORAD_CAT_ID": 41335, "ELEMENT_SET_NO": 999, "REV_AT_EPOCH": 51259, "BSTAR": 5.646952e-05, "MEAN_MOTION_DOT": 9.3e-07, "MEAN_MOTION_DDOT": 0}, "tle": {"line1": "1 41335U 16011A   25354.59566281  .00000093  00000+0  56470-4 0  9993", "line2": "2 41335  98.6304  59.4985 0000906  94.3128 265.8156 14.26733474512596"}}, "geometry": {"type": "Point", "coordinates": [105.82803075476755, -78.0914825942058]}}]}